OBJECT_NAME,OBJECT_ID,EPOCH,MEAN_MOTION,ECCENTRICITY,INCLINATION,RA_OF_ASC_NODE,ARG_OF_PERICENTER,MEAN_ANOMALY,EPHEMERIS_TYPE,CLASSIFICATION_TYPE,NORAD_CAT_ID,ELEMENT_SET_NO,REV_AT_EPOCH,BSTAR,MEAN_MOTION_DOT,MEAN_MOTION_DDOT
TEVEL2-7,2025-052AE,2026-05-11T20:35:57.297120,15.30513154,.0004097,97.3984,27.2110,270.5925,89.4847,0,U,63238,999,6446,.33864E-3,.9919E-4,0
TEVEL2-8,2025-052AF,2026-05-11T05:05:46.399776,15.30482651,.00041062,97.3982,26.5455,275.1722,84.9050,0,U,63239,999,6436,.32475601E-3,.95E-4,0
HADES-ICM,2025-052BN,2026-05-11T06:39:39.255552,15.92461864,.00085321,97.3763,35.2336,169.1734,190.9726,0,U,63492,999,6496,.19228652E-2,.648393E-2,.17188289E-3
FORESAIL-1 PRIME,2025-276DS,2026-05-11T14:55:51.830688,15.18360338,.0001679,97.4208,205.5700,192.8130,167.3062,0,U,66778,999,2485,.15972E-3,.3214E-4,0
